start=new Date('2023-06-18T00:00:00.000Z').valueOf();
sats=[{"MEAN_MOTION":"15.71347704","SITE":"AFETR","MEAN_ELEMENT_THEORY":"SGP4","ECCENTRICITY":"0.00007380","APOAPSIS":"355.543","FILE":"3935891","INCLINATION":"42.9991","EPOCH":"2023-06-17T14:16:46.203744","CENTER_NAME":"EARTH","REV_AT_EPOCH":"662","MEAN_ANOMALY":"102.9341","CLASSIFICATION_TYPE":"U","PERIOD":"91.641","ARG_OF_PERICENTER":"257.1444","MEAN_MOTION_DOT":"-0.00000423","TLE_LINE2":"2 56531  42.9991 236.8340 0000738 257.1444 102.9341 15.71347704  6620","OBJECT_TYPE":"PAYLOAD","NORAD_CAT_ID":"56531","BSTAR":"0.00000021273000","TIME_SYSTEM":"UTC","OBJECT_NAME":"STARLINK-6280","TLE_LINE1":"1 56531U 23065AE  23168.59497921 -.00000423  00000-0  21273-6 0  9993","MEAN_MOTION_DDOT":"0.0000000000000","EPHEMERIS_TYPE":"0","LAUNCH_DATE":"2023-05-14","COUNTRY_CODE":"US","GP_ID":"234175637","RCS_SIZE":"LARGE","DECAY_DATE":null,"ELEMENT_SET_NO":"999","RA_OF_ASC_NODE":"236.8340","OBJECT_ID":"2023-065AE","SEMIMAJOR_AXIS":"6733.181","REF_FRAME":"TEME","PERIAPSIS":"354.549"},{"LAUNCH_DATE":"2023-05-14","MEAN_MOTION_DDOT":"0.0000000000000","EPHEMERIS_TYPE":"0","GP_ID":"234175578","COUNTRY_CODE":"US","OBJECT_NAME":"STARLINK-6319","TIME_SYSTEM":"UTC","TLE_LINE1":"1 56532U 23065AF  23168.59529099 -.00000448  00000-0  25056-7 0  9997","REF_FRAME":"TEME","PERIAPSIS":"354.506","ELEMENT_SET_NO":"999","RCS_SIZE":"LARGE","DECAY_DATE":null,"OBJECT_ID":"2023-065AF","RA_OF_ASC_NODE":"236.8357","SEMIMAJOR_AXIS":"6733.179","INCLINATION":"42.9975","FILE":"3935891","EPOCH":"2023-06-17T14:17:13.141536","CENTER_NAME":"EARTH","APOAPSIS":"355.581","CLASSIFICATION_TYPE":"U","MEAN_ANOMALY":"101.1904","REV_AT_EPOCH":"662","MEAN_ELEMENT_THEORY":"SGP4","MEAN_MOTION":"15.71348658","SITE":"AFETR","ECCENTRICITY":"0.00007980","MEAN_MOTION_DOT":"-0.00000448","TLE_LINE2":"2 56532  42.9975 236.8357 0000798 258.8874 101.1904 15.71348658  6627","ARG_OF_PERICENTER":"258.8874","NORAD_CAT_ID":"56532","BSTAR":"0.00000002505600","OBJECT_TYPE":"PAYLOAD","PERIOD":"91.641"},{"GP_ID":"234175937","COUNTRY_CODE":"US","LAUNCH_DATE":"2023-05-14","MEAN_MOTION_DDOT":"0.0000000000000","EPHEMERIS_TYPE":"0","TLE_LINE1":"1 56533U 23065AG  23168.59487118 -.00002086  00000-0 -12477-4 0  9994","OBJECT_NAME":"STARLINK-6310","TIME_SYSTEM":"UTC","PERIAPSIS":"354.223","REF_FRAME":"TEME","OBJECT_ID":"2023-065AG","RA_OF_ASC_NODE":"236.8314","SEMIMAJOR_AXIS":"6733.195","ELEMENT_SET_NO":"999","RCS_SIZE":"LARGE","DECAY_DATE":null,"CLASSIFICATION_TYPE":"U","MEAN_ANOMALY":"91.1938","REV_AT_EPOCH":"662","FILE":"3935891","INCLINATION":"42.9972","EPOCH":"2023-06-17T14:16:36.869952","CENTER_NAME":"EARTH","APOAPSIS":"355.896","ECCENTRICITY":"0.00012430","MEAN_ELEMENT_THEORY":"SGP4","MEAN_MOTION":"15.71343091","SITE":"AFETR","NORAD_CAT_ID":"56533","BSTAR":"-0.00001247700000","OBJECT_TYPE":"PAYLOAD","TLE_LINE2":"2 56533  42.9972 236.8314 0001243 268.8787  91.1938 15.71343091  6629","MEAN_MOTION_DOT":"-0.00002086","ARG_OF_PERICENTER":"268.8787","PERIOD":"91.641"},{"ECCENTRICITY":"0.00011100","MEAN_ELEMENT_THEORY":"SGP4","SITE":"AFETR","MEAN_MOTION":"15.71354374","MEAN_ANOMALY":"61.7369","CLASSIFICATION_TYPE":"U","REV_AT_EPOCH":"662","EPOCH":"2023-06-17T14:17:03.826752","CENTER_NAME":"EARTH","INCLINATION":"42.9975","FILE":"3935891","APOAPSIS":"355.775","PERIOD":"91.641","BSTAR":"0.00000929270000","NORAD_CAT_ID":"56534","OBJECT_TYPE":"PAYLOAD","MEAN_MOTION_DOT":"0.00000767","TLE_LINE2":"2 56534  42.9975 236.8346 0001110 298.3386  61.7369 15.71354374  6621","ARG_OF_PERICENTER":"298.3386","TLE_LINE1":"1 56534U 23065AH  23168.59518318  .00000767  00000-0  92927-5 0  9993","OBJECT_NAME":"STARLINK-6308","TIME_SYSTEM":"UTC","GP_ID":"234175518","COUNTRY_CODE":"US","LAUNCH_DATE":"2023-05-14","EPHEMERIS_TYPE":"0","MEAN_MOTION_DDOT":"0.0000000000000","SEMIMAJOR_AXIS":"6733.162","RA_OF_ASC_NODE":"236.8346","OBJECT_ID":"2023-065AH","ELEMENT_SET_NO":"999","DECAY_DATE":null,"RCS_SIZE":"LARGE","PERIAPSIS":"354.280","REF_FRAME":"TEME"},{"SEMIMAJOR_AXIS":"6830.722","OBJECT_ID":"2023-065AJ","RA_OF_ASC_NODE":"237.6230","ELEMENT_SET_NO":"999","DECAY_DATE":null,"RCS_SIZE":"LARGE","PERIAPSIS":"451.511","REF_FRAME":"TEME","TLE_LINE1":"1 56535U 23065AJ  23168.91668981 -.00933723  00000-0 -26838-1 0  9995","OBJECT_NAME":"STARLINK-6309","TIME_SYSTEM":"UTC","GP_ID":"234175877","COUNTRY_CODE":"US","LAUNCH_DATE":"2023-05-14","EPHEMERIS_TYPE":"0","MEAN_MOTION_DDOT":"0.0000000000000","PERIOD":"93.640","BSTAR":"-0.02683800000000","NORAD_CAT_ID":"56535","OBJECT_TYPE":"PAYLOAD","TLE_LINE2":"2 56535  42.9978 237.6230 0001575 273.1427  78.0512 15.37810574  1300","MEAN_MOTION_DOT":"-0.00933723","ARG_OF_PERICENTER":"273.1427","ECCENTRICITY":"0.00015750","MEAN_ELEMENT_THEORY":"SGP4","SITE":"AFETR","MEAN_MOTION":"15.37810574","CLASSIFICATION_TYPE":"U","MEAN_ANOMALY":"78.0512","REV_AT_EPOCH":"130","EPOCH":"2023-06-17T22:00:01.999584","CENTER_NAME":"EARTH","FILE":"3935891","INCLINATION":"42.9978","APOAPSIS":"453.663"},{"CLASSIFICATION_TYPE":"U","MEAN_ANOMALY":"74.9134","REV_AT_EPOCH":"130","INCLINATION":"42.9980","FILE":"3935891","EPOCH":"2023-06-17T22:00:01.999584","CENTER_NAME":"EARTH","APOAPSIS":"454.381","ECCENTRICITY":"0.00015390","MEAN_ELEMENT_THEORY":"SGP4","SITE":"AFETR","MEAN_MOTION":"15.37559710","NORAD_CAT_ID":"56536","BSTAR":"-0.02719700000000","OBJECT_TYPE":"PAYLOAD","TLE_LINE2":"2 56536  42.9980 237.6365 0001539 270.1579  74.9134 15.37559710  1305","MEAN_MOTION_DOT":"-0.00938068","ARG_OF_PERICENTER":"270.1579","PERIOD":"93.655","GP_ID":"234175817","COUNTRY_CODE":"US","LAUNCH_DATE":"2023-05-14","MEAN_MOTION_DDOT":"0.0000000000000","EPHEMERIS_TYPE":"0","TLE_LINE1":"1 56536U 23065AK  23168.91668981 -.00938068  00000-0 -27197-1 0  9992","OBJECT_NAME":"STARLINK-6312","TIME_SYSTEM":"UTC","PERIAPSIS":"452.279","REF_FRAME":"TEME","OBJECT_ID":"2023-065AK","RA_OF_ASC_NODE":"237.6365","SEMIMAJOR_AXIS":"6831.465","ELEMENT_SET_NO":"999","RCS_SIZE":"LARGE","DECAY_DATE":null},{"TLE_LINE1":"1 56537U 23065AL  23168.91668981 -.00931209  00000-0 -26602-1 0  9993","OBJECT_NAME":"STARLINK-6311","TIME_SYSTEM":"UTC","GP_ID":"234175697","COUNTRY_CODE":"US","LAUNCH_DATE":"2023-05-14","EPHEMERIS_TYPE":"0","MEAN_MOTION_DDOT":"0.0000000000000","SEMIMAJOR_AXIS":"6830.191","OBJECT_ID":"2023-065AL","RA_OF_ASC_NODE":"237.6115","ELEMENT_SET_NO":"999","DECAY_DATE":null,"RCS_SIZE":"LARGE","PERIAPSIS":"450.938","REF_FRAME":"TEME","ECCENTRICITY":"0.00016380","MEAN_ELEMENT_THEORY":"SGP4","SITE":"AFETR","MEAN_MOTION":"15.37989768","CLASSIFICATION_TYPE":"U","MEAN_ANOMALY":"78.0576","REV_AT_EPOCH":"130","EPOCH":"2023-06-17T22:00:01.999584","CENTER_NAME":"EARTH","INCLINATION":"42.9978","FILE":"3935891","APOAPSIS":"453.175","PERIOD":"93.629","BSTAR":"-0.02660200000000","NORAD_CAT_ID":"56537","OBJECT_TYPE":"PAYLOAD","TLE_LINE2":"2 56537  42.9978 237.6115 0001638 277.6645  78.0576 15.37989768  1307","MEAN_MOTION_DOT":"-0.00931209","ARG_OF_PERICENTER":"277.6645"},{"ELEMENT_SET_NO":"999","DECAY_DATE":null,"RCS_SIZE":"LARGE","SEMIMAJOR_AXIS":"6733.171","OBJECT_ID":"2023-065AM","RA_OF_ASC_NODE":"236.8278","REF_FRAME":"TEME","PERIAPSIS":"354.253","OBJECT_NAME":"STARLINK-6314","TIME_SYSTEM":"UTC","TLE_LINE1":"1 56538U 23065AM  23168.59476453 -.00000587  00000-0 -10337-5 0  9997","LAUNCH_DATE":"2023-05-14","EPHEMERIS_TYPE":"0","MEAN_MOTION_DDOT":"0.0000000000000","GP_ID":"234175757","COUNTRY_CODE":"US","PERIOD":"91.641","MEAN_MOTION_DOT":"-0.00000587","TLE_LINE2":"2 56538  42.9989 236.8278 0001163 250.1653 109.9090 15.71351160  6621","ARG_OF_PERICENTER":"250.1653","BSTAR":"-0.00000103370000","NORAD_CAT_ID":"56538","OBJECT_TYPE":"PAYLOAD","MEAN_ELEMENT_THEORY":"SGP4","SITE":"AFETR","MEAN_MOTION":"15.71351160","ECCENTRICITY":"0.00011630","EPOCH":"2023-06-17T14:16:27.655392","CENTER_NAME":"EARTH","FILE":"3935891","INCLINATION":"42.9989","APOAPSIS":"355.820","CLASSIFICATION_TYPE":"U","MEAN_ANOMALY":"109.9090","REV_AT_EPOCH":"662"},{"MEAN_MOTION":"15.38100679","SITE":"AFETR","MEAN_ELEMENT_THEORY":"SGP4","ECCENTRICITY":"0.00015460","APOAPSIS":"452.784","INCLINATION":"42.9979","FILE":"3935891","EPOCH":"2023-06-17T22:00:01.999584","CENTER_NAME":"EARTH","REV_AT_EPOCH":"129","CLASSIFICATION_TYPE":"U","MEAN_ANOMALY":"84.9736","PERIOD":"93.622","ARG_OF_PERICENTER":"273.7555","TLE_LINE2":"2 56539  42.9979 237.6044 0001546 273.7555  84.9736 15.38100679  1295","MEAN_MOTION_DOT":"-0.00936402","OBJECT_TYPE":"PAYLOAD","NORAD_CAT_ID":"56539","BSTAR":"-0.02666700000000","TIME_SYSTEM":"UTC","OBJECT_NAME":"STARLINK-6135","TLE_LINE1":"1 56539U 23065AN  23168.91668981 -.00936402  00000-0 -26667-1 0  9996","MEAN_MOTION_DDOT":"0.0000000000000","EPHEMERIS_TYPE":"0","LAUNCH_DATE":"2023-05-14","COUNTRY_CODE":"US","GP_ID":"234175638","RCS_SIZE":"LARGE","DECAY_DATE":null,"ELEMENT_SET_NO":"999","OBJECT_ID":"2023-065AN","RA_OF_ASC_NODE":"237.6044","SEMIMAJOR_AXIS":"6829.863","REF_FRAME":"TEME","PERIAPSIS":"450.672"},{"OBJECT_NAME":"STARLINK-6136","TIME_SYSTEM":"UTC","TLE_LINE1":"1 56540U 23065AP  23168.91668981 -.00937482  00000-0 -27512-1 0  9997","LAUNCH_DATE":"2023-05-14","MEAN_MOTION_DDOT":"0.0000000000000","EPHEMERIS_TYPE":"0","GP_ID":"234175579","COUNTRY_CODE":"US","ELEMENT_SET_NO":"999","RCS_SIZE":"LARGE","DECAY_DATE":null,"OBJECT_ID":"2023-065AP","RA_OF_ASC_NODE":"237.6584","SEMIMAJOR_AXIS":"6832.571","REF_FRAME":"TEME","PERIAPSIS":"453.364","MEAN_ELEMENT_THEORY":"SGP4","MEAN_MOTION":"15.37186397","SITE":"AFETR","ECCENTRICITY":"0.00015690","FILE":"3935891","INCLINATION":"42.9977","CENTER_NAME":"EARTH","EPOCH":"2023-06-17T22:00:01.999584","APOAPSIS":"455.508","MEAN_ANOMALY":"64.3093","CLASSIFICATION_TYPE":"U","REV_AT_EPOCH":"130","PERIOD":"93.678","MEAN_MOTION_DOT":"-0.00937482","TLE_LINE2":"2 56540  42.9977 237.6584 0001569 271.9451  64.3093 15.37186397  1304","ARG_OF_PERICENTER":"271.9451","NORAD_CAT_ID":"56540","BSTAR":"-0.02751200000000","OBJECT_TYPE":"PAYLOAD"}];
